ONEWEB-0668             
1 56711U 23068B   24123.75565568  .00000062  00000+0  12856-3 0  9990
2 56711  87.9137  23.1350 0002470  74.5275 285.6128 13.16593996 50441
ONEWEB-0676             
1 56712U 23068C   24122.13488323 -.00044949  00000+0 -11885+0 0  9996
2 56712  87.9150  23.4571 0001899  47.7071 312.4220 13.16214895 49454
ONEWEB-0677             
1 56713U 23068D   24123.57086869 -.00000140  00000+0 -30372-3 0  9996
2 56713  88.3262  67.8694 0002239  74.0788 286.0600 13.34793751 47368
ONEWEB-0678             
1 56714U 23068E   24123.52734894 -.00000072  00000+0 -22454-3 0  9996
2 56714  87.9051  53.5147 0001803  90.1070 270.0267 13.15550564 48000
ONEWEB-0679             
1 56715U 23068F   24123.78099776  .00000051  00000+0  10054-3 0  9996
2 56715  87.9143  23.1369 0002166  59.6377 300.4968 13.16595406 50391
ONEWEB-0680             
1 56716U 23068G   24123.79965433  .00000014  00000+0  33965-5 0  9997
2 56716  87.9317  38.3472 0002663  71.0379 289.1043 13.21828022 49361
ONEWEB-0682             
1 56718U 23068J   24123.85772611  .00000103  00000+0  23870-3 0  9991
2 56718  87.9048  53.4922 0002391  68.6766 291.4619 13.15549575 48216
